38P/Stephan-Oterma,e,18.3945,77.8949,359.5102,11.24003,0.0261549,0.85951108,42.2646,04/16.0/2023,2000,g  3.5,12.0
# From MPEC 2022-A21
39P/Oterma,e,1.5441,296.6980,101.8951,7.254053,0.0504467,0.21316985,355.9203,04/16.0/2023,2000,g  7.0,6.0
# From MPC100283
40P/Vaisala,e,11.4611,133.6125,47.5121,4.955980,0.0893325,0.63121788,275.7230,04/16.0/2023,2000,g  5.5,12.0
# From MPC105240
41P/Tuttle-Giacobini-Kresak,e,9.2205,140.9883,62.2114,3.087931,0.1816364,0.65989622,38.9786,04/16.0/2023,2000,g 10.0,16.0
# From MPC 94283
42P/Neujmin,e,3.9907,150.1757,147.2198,4.874329,0.0915866,0.58450568,267.9823,04/16.0/2023,2000,g 13.0,6.0
# From MPEC 2022-C56
43P/Wolf-Harrington,e,9.3314,244.0210,224.0691,4.320891,0.1097347,0.43526383,267.4867,04/16.0/2023,2000,g  8.0,6.0
# From MPEC 2023-F81
44P/Reinmuth,e,5.8969,286.4278,58.0339,3.688538,0.1391306,0.42736967,49.8086,04/16.0/2023,2000,g  8.3,6.0
# From MPEC 2022-O01
45P/Honda-Mrkos-Pajdusakova,e,4.3231,87.6885,327.9258,3.055870,0.1845023,0.81768093,65.3170,04/16.0/2023,2000,g 13.5,8.0
# From MPEC 2021-O56
46P/Wirtanen,e,11.7496,82.1626,356.3289,3.091622,0.1813112,0.65875626,287.5645,04/16.0/2023,2000,g 14.0,6.0
# From MPEC 2021-F20
47P/Ashbrook-Jackson,e,13.0397,356.9169,357.7674,4.121642,0.1177873,0.31869763,251.0109,04/16.0/2023,2000,g 12.2,4.0
# From MPEC 2023-FK0
48P/Johnson,e,12.2004,110.0881,216.7468,3.501088,0.1504525,0.42709386,256.7226,04/16.0/2023,2000,g 10.0,6.0
# From MPEC 2021-F20
49P/Arend-Rigaux,e,19.0537,118.7914,332.9223,3.569321,0.1461590,0.59864312,253.9166,04/16.0/2023,2000,g 13.4,4.0
# From MPEC 2015-S97
50P/Arend,e,19.1012,355.1730,49.3562,4.087344,0.1192730,0.52964791,313.1435,04/16.0/2023,2000,g  9.5,6.0
# From MPEC 2022-UE6
51P/Harrington,e,5.4265,83.6615,269.2512,3.706803,0.1381036,0.54340865,27.1696,04/16.0/2023,2000,g 10.0,8.0
# From NK 3014
51P-A/Harrington,e,5.4264,83.6616,269.2225,3.708472,0.1380103,0.54364640,26.7978,04/16.0/2023,2000,g 10.0,8.0
# From MPEC 2022-X67
51P-D/Harrington,e,5.4269,83.6499,269.2693,3.707166,0.1380833,0.54353894,27.1071,04/16.0/2023,2000,g 16.0,8.0
# From MPEC 2022-L66
52P/Harrington-Abell,e,10.2310,336.8241,139.5593,3.863663,0.1297793,0.54033175,72.3893,04/16.0/2023,2000,g 13.5,6.0
# From MPC100283
53P/Van Biesbroeck,e,6.6078,148.8248,134.4881,5.432812,0.0778336,0.55038961,197.9965,04/16.0/2023,2000,g  7.7,4.8
# From MPC 89011
54P/de Vico-Swift-NEAT,e,6.0641,358.8103,1.9024,3.788102,0.1336816,0.42645455,292.2558,04/16.0/2023,2000,g  9.0,4.0
# From MPC 31070
55P/Tempel-Tuttle,e,162.5070,235.4207,172.4744,10.35562,0.0295760,0.90528905,272.5193,04/16.0/2023,2000,g  9.0,4.0
# From MPC101100
56P/Slaughter-Burnham,e,8.1590,345.9757,44.0560,5.065742,0.0864449,0.50853602,212.4386,04/16.0/2023,2000,g  8.5,6.0
# From MPEC 2023-CD7
57P/duToit-Neujmin-Delporte,e,2.8524,188.7775,115.1371,3.443530,0.1542405,0.50083265,84.1915,04/16.0/2023,2000,g 12.5,6.0
# From MPEC 2021-O56
58P/Jackson-Neujmin,e,13.1051,159.0743,200.5472,4.088555,0.1192201,0.66266470,125.5619,04/16.0/2023,2000,g 15.5,6.0
# From MPEC 2023-A50
59P/Kearns-Kwee,e,9.3450,312.7842,127.5285,4.482926,0.1038393,0.47624765,173.5353,04/16.0/2023,2000,g  7.0,6.0
# From MPEC 2021-F20
60P/Tsuchinshan,e,3.5802,267.4389,216.9834,3.526206,0.1488478,0.53359515,236.9044,04/16.0/2023,2000,g 11.5,6.0
# From MPEC 2023-FK0
61P/Shajn-Schaldach,e,5.9995,162.9615,221.6398,3.688982,0.1391055,0.42374974,24.2404,04/16.0/2023,2000,g  6.0,10.0
# From MPC109147
62P/Tsuchinshan,e,4.7364,68.6736,47.3139,3.370230,0.1592996,0.62485980,319.6920,04/16.0/2023,2000,g  8.0,10.0
# From MPC 84320
63P/Wild,e,19.7156,358.0068,168.9502,5.615885,0.0740588,0.64996697,272.6533,04/16.0/2023,2000,g 10.5,6.0
# From MPEC 2023-A50
64P/Swift-Gehrels,e,8.9491,299.8946,97.1773,4.452553,0.1049036,0.68869541,170.1791,04/16.0/2023,2000,g  9.5,12.0
# From MPEC 2023-G31
65P/Gunn,e,9.1757,61.9837,213.8568,3.889407,0.1284928,0.24836057,258.0933,04/16.0/2023,2000,g  5.0,6.0
# From MPEC 2021-F20
66P/duToit,e,18.6388,21.7784,257.4870,6.070528,0.0658968,0.78572382,118.2471,04/16.0/2023,2000,g 15.0,4.0
# From MPEC 2023-FK0
67P/Churyumov-Gerasimenko,e,3.8719,36.3291,22.1535,3.457458,0.1533093,0.64990467,81.2286,04/16.0/2023,2000,g 11.0,4.0
# From MPEC 2022-H04
68P/Klemola,e,11.1109,175.0491,153.2537,4.959626,0.0892341,0.63707042,111.9107,04/16.0/2023,2000,g 12.7,4.0
# From MPEC 2023-A50
69P/Taylor,e,22.0484,104.8051,343.3975,3.884062,0.1287582,0.41397871,191.7476,04/16.0/2023,2000,g  9.5,12.0
# From MPEC 2023-G31
70P/Kojima,e,6.5982,119.2534,1.7928,3.677353,0.1397659,0.45398017,73.9235,04/16.0/2023,2000,g 11.0,6.0
# From MPEC 2023-F81
71P/Clark,e,9.4381,59.3933,209.0615,3.138118,0.1772965,0.49370001,14.7540,04/16.0/2023,2000,g  9.8,6.0
# From MPC 89011
72P/Denning-Fujikawa,e,10.9487,26.7013,346.7341,4.306959,0.1102676,0.81865709,353.2867,04/16.0/2023,2000,g 17.5,10.0
# From MPEC 2023-G31
73P/Schwassmann-Wachmann,e,11.2320,69.5862,199.5111,3.093739,0.1811251,0.68561360,42.2324,04/16.0/2023,2000,g 11.5,6.0
# From MPC106348
73P-T/Schwassmann-Wachmann,e,11.2339,69.5890,199.4917,3.095220,0.1809951,0.68580735,41.9460,04/16.0/2023,2000,g 11.5,6.0
# From MPEC 2022-P18
73P-U/Schwassmann-Wachmann,e,11.0734,70.6547,199.8914,2.877132,0.2019595,0.66632979,47.2749,04/16.0/2023,2000,g 19.0,4.0
# From MPEC 2022-X67
73P-V/Schwassmann-Wachmann,e,11.2480,69.4644,199.3879,3.147163,0.1765327,0.69052762,41.3034,04/16.0/2023,2000,g 19.0,4.0
# From MPEC 2022-R15
73P-W/Schwassmann-Wachmann,e,11.6074,67.2839,198.7725,4.596929,0.1000006,0.78239692,23.3490,04/16.0/2023,2000,g 18.2,4.0
# From MPEC 2023-A50
73P-X/Schwassmann-Wachmann,e,11.2636,69.4576,199.4061,3.126415,0.1782930,0.68847676,41.6558,04/16.0/2023,2000,g 17.5,4.0
# From MPEC 2022-R15
73P-Y/Schwassmann-Wachmann,e,11.2023,69.7439,199.4837,3.035503,0.1863623,0.68021902,43.7339,04/16.0/2023,2000,g 17.4,4.0
# From MPEC 2022-P18
73P-BU/Schwassmann-Wachmann,e,11.0734,70.6547,199.8914,2.877132,0.2019595,0.66632979,47.2749,04/16.0/2023,2000,g 19.0,4.0
# From MPEC 2022-X67
73P-BV/Schwassmann-Wachmann,e,11.2480,69.4644,199.3879,3.147163,0.1765327,0.69052762,41.3034,04/16.0/2023,2000,g 19.0,4.0
# From MPEC 2022-R15
73P-BW/Schwassmann-Wachmann,e,11.6074,67.2839,198.7725,4.596929,0.1000006,0.78239692,23.3490,04/16.0/2023,2000,g 18.2,4.0
# From MPEC 2023-A50
73P-BX/Schwassmann-Wachmann,e,11.2636,69.4576,199.4061,3.126415,0.1782930,0.68847676,41.6558,04/16.0/2023,2000,g 17.5,4.0
# From MPEC 2022-R15
73P-BY/Schwassmann-Wachmann,e,11.2023,69.7439,199.4837,3.035503,0.1863623,0.68021902,43.7339,04/16.0/2023,2000,g 17.4,4.0
# From MPEC 2023-A50
74P/Smirnova-Chernykh,e,6.4071,54.1931,139.8750,4.675476,0.0974912,0.07351481,179.4681,04/16.0/2023,2000,g  5.0,6.0
# From MPEC 2022-K19
76P/West-Kohoutek-Ikemura,e,30.4858,84.1045,359.9361,3.470325,0.1524576,0.53884137,193.2314,04/16.0/2023,2000,g  8.0,12.0
# From MPEC 2023-G31
77P/Longmore,e,24.3187,14.7680,196.7299,3.623911,0.1428689,0.35186955,1.8407,04/16.0/2023,2000,g  7.0,8.0
# From MPEC 2021-O56
78P/Gehrels,e,6.2573,210.5191,192.6540,3.736727,0.1364479,0.46297670,200.9269,04/16.0/2023,2000,g  5.5,8.0
# From MPC 94675
79P/du Toit-Hartley,e,3.1487,280.5196,281.7879,2.943792,0.1951387,0.61917930,327.3410,04/16.0/2023,2000,g 16.0,4.0
# From MPEC 2023-G31
80P/Peters-Hartley,e,29.9234,259.7963,339.2397,4.022988,0.1221465,0.59847107,15.6544,04/16.0/2023,2000,g  9.0,8.0
# From MPEC 2023-G31
81P/Wild,e,3.2364,136.0981,41.6229,3.454433,0.1535108,0.53728695,18.6347,04/16.0/2023,2000,g  7.0,6.0
# From MPC133426
82P/Gehrels,e,1.1292,239.2468,226.4218,4.133028,0.1173010,0.12212037,206.2421,04/16.0/2023,2000,g 15.0,4.0
# From MPEC 2020-FB5
84P/Giclas,e,7.5502,108.1305,281.6502,3.549964,0.1473561,0.51608394,154.0699,04/16.0/2023,2000,g  9.5,8.0
# From MPEC 2022-YB4
86P/Wild,e,15.4749,72.3083,179.6330,3.605844,0.1439440,0.37248620,62.1700,04/16.0/2023,2000,g 11.0,6.0
# From MPEC 2020-SI8
87P/Bus,e,4.7564,184.6007,44.6131,3.915358,0.1272175,0.34095011,125.5159,04/16.0/2023,2000,g  7.2,10.0
# From MPEC 2022-ED3
88P/Howell,e,4.3820,56.6688,235.9380,3.106372,0.1800213,0.56356090,167.7659,04/16.0/2023,2000,g 11.0,6.0
# From MPEC 2023-G31
89P/Russell,e,12.0719,41.3468,250.3957,3.753361,0.1355419,0.40806765,313.1614,04/16.0/2023,2000,g 11.5,6.0
# From MPEC 2022-K19
90P/Gehrels,e,9.6507,13.2046,29.0761,6.051297,0.0662112,0.51107636,140.6285,04/16.0/2023,2000,g  8.5,6.0
# From MPEC 2021-S45
91P/Russell,e,14.3400,245.9959,356.6974,3.900434,0.1279484,0.33546890,113.1389,04/16.0/2023,2000,g  7.5,6.0
# From MPEC 2014-J58
92P/Sanguin,e,19.5068,181.3616,163.8129,5.342929,0.0798059,0.66088763,236.2956,04/16.0/2023,2000,g 12.0,6.0
# From NK 2707
93P/Lovas,e,12.2034,339.6192,74.8668,4.379258,0.1075482,0.61371799,240.3122,04/16.0/2023,2000,g  9.0,4.0
# From MPEC 2023-G31
94P/Russell,e,6.1876,70.8555,92.4172,3.509840,0.1498902,0.36547860,354.7426,04/16.0/2023,2000,g  9.0,6.0
# From MPC 75717
95P/Chiron,e,6.9178,209.3062,339.4188,13.71285,0.0194094,0.37626874,193.9116,04/16.0/2023,2000,g  6.5,2.0
# From MPEC 2023-G31
96P/Machholz,e,57.5037,93.9533,14.7489,3.030792,0.1867970,0.96158553,13.9940,04/16.0/2023,2000,g 13.0,4.8
# From MPEC 2022-C56
97P/Metcalf-Brewington,e,17.9518,184.0774,230.0265,4.762973,0.0948171,0.46023907,40.2264,04/16.0/2023,2000,g  5.5,6.0
# From MPEC 2021-W31
98P/Takamizawa,e,10.5624,114.6719,157.7835,3.792678,0.1334397,0.56221966,110.9615,04/16.0/2023,2000,g  9.0,8.0
# From MPEC 2023-G31
99P/Kowal,e,4.3398,28.1010,174.8129,6.100959,0.0654044,0.22872249,24.1672,04/16.0/2023,2000,g  4.5,6.0
# From MPEC 2022-QD9
100P/Hartley,e,25.5668,37.6876,181.9585,3.430910,0.1550923,0.41193675,38.4765,04/16.0/2023,2000,g  9.0,8.0
# From MPEC 2022-K19
101P/Chernykh,e,5.0504,116.1955,277.7947,5.809951,0.0703794,0.59638990,83.6645,04/16.0/2023,2000,g 10.0,4.8
# From MPEC 2022-C56
102P/Shoemaker,e,25.8789,339.3709,20.6597,3.816855,0.1321738,0.45702668,107.5069,04/16.0/2023,2000,g  6.5,8.0
# From MPEC 2018-HA5
